COMMENT,ORIGINATOR,NORAD_CAT_ID,OBJECT_NAME,OBJECT_TYPE,CLASSIFICATION_TYPE,INTLDES,EPOCH,EPOCH_MICROSECONDS,MEAN_MOTION,ECCENTRICITY,INCLINATION,RA_OF_ASC_NODE,ARG_OF_PERICENTER,MEAN_ANOMALY,EPHEMERIS_TYPE,ELEMENT_SET_NO,REV_AT_EPOCH,BSTAR,MEAN_MOTION_DOT,MEAN_MOTION_DDOT,FILE,TLE_LINE0,TLE_LINE1,TLE_LINE2,OBJECT_ID,OBJECT_NUMBER,SEMIMAJOR_AXIS,PERIOD,APOGEE,PERIGEE
"GENERATED VIA SPACETRACK.ORG API","JSPOC","25339","SL-12 R/B(2)","ROCKET BODY","U","96053D","2016-01-14 23:51:56","317248","0.98092207","0.0056241","13.0441","34.6895","217.0343","284.9147","0","999","6330","0","-2.3e-07","0","1980707","0 SL-12 R/B(2)","1 25339U 96053D   16014.99440182 -.00000023 +00000-0 +00000-0 0  9990","2 25339 013.0441 034.6895 0056241 217.0343 284.9147 00.98092207063304","1996-053D","25339","42787.032","1468.006","36649.536","36168.259"
"GENERATED VIA SPACETRACK.ORG API","JSPOC","20625","SL-16 R/B","ROCKET BODY","U","90046B","2016-01-14 23:53:21","217344","14.14591514","0.00143","70.9989","158.7903","186.4649","311.9299","0","999","32441","-0.00010187","-2.44e-06","0","1980425","0 SL-16 R/B","1 20625U 90046B   16014.99538446 -.00000244  00000-0 -10187-3 0  9996","2 20625  70.9989 158.7903 0014300 186.4649 311.9299 14.14591514324411","1990-046B","20625","7221.839","101.796","854.031","833.376"
"GENERATED VIA SPACETRACK.ORG API","JSPOC","2144","ATLAS AGENA D R/B","ROCKET BODY","U","66031B","2016-01-14 23:53:40","754112","14.42510573","0.0008777","35.041","196.2666","339.6061","20.4278","0","999","61309","4.0565e-05","1.17e-06","0","1980540","0 ATLAS AGENA D R/B","1 02144U 66031B   16014.99561058  .00000117  00000-0  40565-4 0  9995","2 02144  35.0410 196.2666 0008777 339.6061  20.4278 14.42510573613093","1966-031B","2144","7128.352","99.825","756.474","743.961"
"GENERATED VIA SPACETRACK.ORG API","JSPOC","38859","FREGAT R/B","ROCKET BODY","U","12055C","2016-01-14 23:55:10","302528","1.66706253","0.0004514","54.9604","207.9915","288.5249","71.4469","0","999","1982","0","8.3e-07","0","1980707","0 FREGAT R/B","1 38859U 12055C   16014.99664702 +.00000083 +00000-0 +00000-0 0  9992","2 38859 054.9604 207.9915 0004514 288.5249 071.4469 01.66706253019825","2012-055C","38859","30044.656","863.794","23680.083","23652.959"
"GENERATED VIA SPACETRACK.ORG API","JSPOC","38859","FREGAT R/B","ROCKET BODY","U","12055C","2016-01-14 23:55:10","302528","1.66706253","0.0004514","54.9604","207.9915","288.5249","71.4469","0","999","1983","0","8.3e-07","0","1980751","0 FREGAT R/B","1 38859U 12055C   16014.99664702  .00000083  00000-0  00000+0 0  9991","2 38859  54.9604 207.9915 0004514 288.5249  71.4469  1.66706253 19836","2012-055C","38859","30044.656","863.794","23680.083","23652.959"
"GENERATED VIA SPACETRACK.ORG API","JSPOC","11238","COSMOS 1072","PAYLOAD","U","79003A","2016-01-14 23:55:24","315744","13.7410734","0.0038383","82.9424","142.2158","129.817","9.3464","0","999","85489","4.4728e-05","5.8e-07","0","1980413","0 COSMOS 1072","1 11238U 79003A   16014.99680921  .00000058  00000-0  44728-4 0  9992","2 11238  82.9424 142.2158 0038383 129.8170   9.3464 13.74107340854892","1979-003A","11238","7362.998","104.795","1013.125","956.602"
"GENERATED VIA SPACETRACK.ORG API","JSPOC","40748","BD-18","PAYLOAD","U","15037A","2016-01-14 23:55:50","132928","1.86229716","0.0008864","55.0976","71.3386","254.6818","244.6987","0","999","323","0","-4.2e-07","0","1980539","0 BD-18","1 40748U 15037A   16014.99710802 -.00000042  00000-0  00000+0 0  9993","2 40748  55.0976  71.3386 0008864 254.6818 244.6987  1.86229716  3235","2015-037A","40748","27906.316","773.238","21552.917","21503.445"
"GENERATED VIA SPACETRACK.ORG API","JSPOC","37372","COSMOS 2471 (GLONASS)","PAYLOAD","U","11009A","2016-01-14 23:56:05","841312","2.13102988","0.0008723","65.1567","82.222","233.4049","255.2084","0","999","3798","0","-1.6e-07","0","1980504","0 COSMOS 2471 (GLONASS)","1 37372U 11009A   16014.99728983 -.00000016  00000-0  00000+0 0  9997","2 37372  65.1567  82.2220 0008723 233.4049 255.2084  2.13102988 37982","2011-009A","37372","25507.945","675.729","19152.061","19107.560"
"GENERATED VIA SPACETRACK.ORG API","JSPOC","29162","EUTE 113 WEST A(SATMEX 6","PAYLOAD","U","06020A","2016-01-14 23:56:21","396768","1.00272167","0.0002857","0.022","104.0252","192.8799","63.0519","0","999","3531","0","-4.2e-07","0","1980707","0 EUTE 113 WEST A(SATMEX 6","1 29162U 06020A   16014.99746987 -.00000042 +00000-0 +00000-0 0  9996","2 29162 000.0220 104.0252 0002857 192.8799 063.0519 01.00272167035319","2006-020A","29162","42164.624","1436.091","35798.536","35774.443"
"GENERATED VIA SPACETRACK.ORG API","JSPOC","5438","SCOUT B-1 R/B","ROCKET BODY","U","71071B","2016-01-14 23:56:38","339808","14.57228925","0.0108532","50.1452","208.7391","118.524","242.6667","0","999","34400","9.1118e-05","2.43e-06","0","1980454","0 SCOUT B-1 R/B","1 05438U 71071B   16014.99766597  .00000243  00000-0  91118-4 0  9999","2 05438  50.1452 208.7391 0108532 118.5240 242.6667 14.57228925344008","1971-071B","5438","7080.272","98.817","778.981","625.294"
"GENERATED VIA SPACETRACK.ORG API","JSPOC","22109","DELTA 2 R/B(1)","ROCKET BODY","U","92058B","2016-01-14 23:57:27","35712","14.73044331","0.003708","19.7824","264.6825","149.9206","210.3344","0","999","23283","6.9368e-05","8.32e-06","0","1980707","0 DELTA 2 R/B(1)","1 22109U 92058B   16014.99822958 +.00000832 +00000-0 +69368-4 0  9991","2 22109 019.7824 264.6825 0037080 149.9206 210.3344 14.73044331232834","1992-058B","22109","7029.503","97.756","677.433","625.302"
"GENERATED VIA SPACETRACK.ORG API","JSPOC","40275","YAOGAN 22","PAYLOAD","U","14063A","2016-01-14 23:58:00","291936","13.1530474","0.0006507","100.3668","132.3121","172.4122","187.7084","0","999","5938","0","-4.4e-07","0","1980499","0 YAOGAN 22","1 40275U 14063A   16014.99861449 -.00000044  00000-0  00000+0 0  9992","2 40275 100.3668 132.3121 0006507 172.4122 187.7084 13.15304740 59382","2014-063A","40275","7580.844","109.480","1207.642","1197.776"
"GENERATED VIA SPACETRACK.ORG API","JSPOC","23752","SKIPPER","PAYLOAD","U","95072B","2016-01-14 23:58:06","208608","14.2577012","0.0005132","98.8383","332.5696","343.2232","58.1867","0","999","4316","1.9831e-05","2e-08","0","1980418","0 SKIPPER","1 23752U 95072B   16014.99868297  .00000002  00000-0  19831-4 0  9990","2 23752  98.8383 332.5696 0005132 343.2232  58.1867 14.25770120 43162","1995-072B","23752","7184.041","100.998","809.593","802.219"
